CUBEBUG-2 (LO-74)       
1 39440U 13066AA  26180.32123062  .00004338  00000+0  40121-3 0  9990
2 39440  97.8907 129.3513 0057100 348.8931  11.1023 14.93858905678804
FUNCUBE-1 (AO-73)       
1 39444U 13066AE  26179.92186698  .00006331  00000+0  39163-3 0  9991
2 39444  97.8277 151.6136 0036884 160.9318 199.3301 15.09627566681431
UWE-3                   
1 39446U 13066AG  26179.84552922  .00002989  00000+0  25871-3 0  9997
2 39446  97.8711 135.9993 0046889 281.4584  78.1373 14.97114508679323
UNISAT-6                
1 40012U 14033C   26180.36972073  .00002723  00000+0  29498-3 0  9990
2 40012  97.7887 332.8678 0045501  30.0269 330.3542 14.88303536647971
DUCHIFAT-1              
1 40021U 14033M   26179.97276446  .00117244  00000+0  10875-2 0  9999
2 40021  98.0456 240.8096 0000645 103.8669 256.2662 15.67092926657596
QB50P1                  
1 40025U 14033R   26180.53975531  .00007132  00000+0  34967-3 0  9991
2 40025  98.0957 192.5529 0009128 172.2235 187.9140 15.18442582654900
LILACSAT-2              
1 40908U 15049K   26180.52545839  .00016754  00000+0  28126-3 0  9992
2 40908  97.4629 217.8379 0006751 192.0574 168.0518 15.51845446597669
FOX-1A (AO-85)          
1 40967U 15058D   26180.49287567  .00001924  00000+0  18004-3 0  9991
2 40967  64.7743 240.7404 0131209  51.8035 309.4807 14.91019093115407
CAS-2T & KS-1Q          
1 41847U 16066G   26180.15321707  .00001632  00000+0  23513-3 0  9994
2 41847  98.3820 255.7526 0342862  93.2988 270.7482 14.44732334506525
RADFXSAT (FOX-1B)       
1 43017U 17073E   26179.58479444  .00006671  00000+0  29239-3 0  9990
2 43017  97.4690  46.5670 0148535 289.4918  69.0319 15.12867010467115
DIWATA-2B               
1 43678U 18084H   26180.50690872  .00002124  00000+0  17351-3 0  9991
2 43678  98.1200  17.2527 0013068 131.9291 228.3048 15.00504862418065
ES'HAIL 2               
1 43700U 18090A   26180.30843590  .00000000  00000+0  00000+0 0  9999
2 43700   0.0280  28.9028 0002229 103.4866 281.8248  1.00270954 27794
FOX-1CLIFF (AO-95)      
1 43770U 18099N   26179.61231892  .00010033  00000+0  38164-3 0  9996
2 43770  97.4385 239.8174 0007054 311.8599  48.2037 15.26945463414968
ITASAT                  
1 43786U 18099AE  26179.68058647  .00006300  00000+0  30213-3 0  9994
2 43786  97.4026 230.9633 0011055 317.1813  42.8560 15.19194925414651
JY1SAT (JO-97)          
1 43803U 18099AX  26179.64306094  .00015787  00000+0  48155-3 0  9995
2 43803  97.4130 242.5189 0005256 213.1026 146.9889 15.34009895415388
UWE-4                   
1 43880U 18111E   26180.31500466  .00028228  00000+0  56220-3 0  9996
2 43880  97.5854 109.2707 0004281 275.7537  84.3224 15.46866057412659
TIANYAN 01              
1 44881U 19093C   26180.49750623  .00001278  00000+0  15013-3 0  9990
2 44881  97.7535 252.4293 0014811  50.6558 309.5968 14.86540256353242
RS-44 & BREEZE-KM R/B   
1 44909U 19096E   26180.51417038  .00000003  00000+0 -41581-4 0  9993
2 44909  82.5229 331.5128 0218520 115.4686 246.9198 12.79749009303922
SALSAT                  
1 46495U 20068K   26179.98408402  .00006804  00000+0  23731-3 0  9990
2 46495  97.8845 183.7681 0007870 257.4321 102.6038 15.29961615317164
XW-3 (CAS-9)            
1 50466U 21131B   26180.48060178  .00000355  00000+0  12340-3 0  9995
2 50466  98.4990 272.8037 0005296  68.7205 291.4549 14.41367883236887
GREENCUBE (IO-117)      
1 53109U 22080E   26179.70139334 -.00000003  00000+0  00000+0 0  9997
2 53109  70.1440 294.2410 0008987 287.1341  72.8335  6.42583249 92806
UMKA 1 (RS40S)          
1 57172U 23091G   26180.52884965  .00005798  00000+0  26430-3 0  9997
2 57172  97.5047 239.1789 0014191  79.5284 280.7550 15.20956934165885
CUBESX-HSE 3 (RS42S)    
1 57178U 23091N   26180.52378063  .00012433  00000+0  41010-3 0  9995
2 57178  97.5092 246.2684 0011276  55.8921 304.3388 15.31519311166317
MONITOR-3 (RS58S)       
1 57180U 23091Q   26180.51022314  .00010170  00000+0  37317-3 0  9993
2 57180  97.5082 244.0477 0012523  62.3384 297.9124 15.28085042166171
MONITOR-4 (RS57S)       
1 57182U 23091S   26180.48859632  .00009839  00000+0  36022-3 0  9994
2 57182  97.5077 243.9979 0012531  62.6071 297.6441 15.28168993166173
MONITOR-2 (RS39S)       
1 57184U 23091U   26180.49981549  .00005049  00000+0  24393-3 0  9997
2 57184  97.5070 238.7032 0012605  73.7465 286.5155 15.19022326165821
SVYATOBOR 1 (RS60S)     
1 57187U 23091X   26180.51239135  .00008610  00000+0  32897-3 0  9995
2 57187  97.5089 244.3984 0010272  56.9326 303.2898 15.26819344166194
VIZARD-METEO (RS38S)    
1 57189U 23091Z   26180.52374782  .00015195  00000+0  42951-3 0  9994
2 57189  97.5093 250.2583 0007254  38.6374 321.5387 15.36409727166588
POLYTECH-UNIVERSE 3 (R*)
1 57191U 23091AB  26180.52536735  .00005058  00000+0  24251-3 0  9995
2 57191  97.5045 238.2330 0017022  87.8591 272.4592 15.19228991165826
UTMN 2 (RS27S)          
1 57203U 23091AP  26180.46936521  .00012418  00000+0  39956-3 0  9995
2 57203  97.5088 247.8621 0008396  45.9471 314.2461 15.32344368166421
